{"fetched_at":"2026-07-20T18:28:50.031Z","source":"https://celestrak.org/NORAD/elements/gp.php?GROUP=kuiper&FORMAT=JSON","constellation":"kuiper","records":[{"OBJECT_NAME":"KUIPER-00114","OBJECT_ID":"2025-171V","EPOCH":"2026-07-20T06:53:28.497696","CLASSIFICATION_TYPE":"U","MEAN_MOTION":14.7994357,"ECCENTRICITY":0.00003756,"INCLINATION":51.9013,"RA_OF_ASC_NODE":309.2499,"ARG_OF_PERICENTER":122.4043,"MEAN_ANOMALY":237.6956,"EPHEMERIS_TYPE":0,"NORAD_CAT_ID":65151,"ELEMENT_SET_NO":999,"REV_AT_EPOCH":5227,"BSTAR":0.00024587297,"MEAN_MOTION_DOT":0.00001654,"MEAN_MOTION_DDOT":0},{"OBJECT_NAME":"KUIPER-00115","OBJECT_ID":"2025-171W","EPOCH":"2026-07-19T16:29:57.478848","CLASSIFICATION_TYPE":"U","MEAN_MOTION":14.79934372,"ECCENTRICITY":0.00004123,"INCLINATION":51.902,"RA_OF_ASC_NODE":304.4038,"ARG_OF_PERICENTER":118.7827,"MEAN_ANOMALY":241.3177,"EPHEMERIS_TYPE":0,"NORAD_CAT_ID":65152,"ELEMENT_SET_NO":999,"REV_AT_EPOCH":5229,"BSTAR":0.00020344346,"MEAN_MOTION_DOT":0.0000133,"MEAN_MOTION_DDOT":0},{"OBJECT_NAME":"KUIPER-00116","OBJECT_ID":"2025-171X","EPOCH":"2026-07-20T07:46:00.123456","CLASSIFICATION_TYPE":"U","MEAN_MOTION":14.79923968,"ECCENTRICITY":0.00006042,"INCLINATION":51.9014,"RA_OF_ASC_NODE":306.6248,"ARG_OF_PERICENTER":99.3751,"MEAN_ANOMALY":260.7279,"EPHEMERIS_TYPE":0,"NORAD_CAT_ID":65153,"ELEMENT_SET_NO":999,"REV_AT_EPOCH":5231,"BSTAR":0.0002582379,"MEAN_MOTION_DOT":0.00001748,"MEAN_MOTION_DDOT":0},{"OBJECT_NAME":"KUIPER-00118","OBJECT_ID":"2025-171Y","EPOCH":"2026-07-19T17:06:53.784864","CLASSIFICATION_TYPE":"U","MEAN_MOTION":14.79939968,"ECCENTRICITY":0.00003888,"INCLINATION":51.9009,"RA_OF_ASC_NODE":311.7748,"ARG_OF_PERICENTER":103.0739,"MEAN_ANOMALY":257.0267,"EPHEMERIS_TYPE":0,"NORAD_CAT_ID":65154,"ELEMENT_SET_NO":999,"REV_AT_EPOCH":5219,"BSTAR":0.00022151172,"MEAN_MOTION_DOT":0.00001468,"MEAN_MOTION_DDOT":0},{"OBJECT_NAME":"KUIPER-00119","OBJECT_ID":"2025-171Z","EPOCH":"2026-07-19T23:55:18.393888","CLASSIFICATION_TYPE":"U","MEAN_MOTION":14.79942392,"ECCENTRICITY":0.00001943,"INCLINATION":51.9045,"RA_OF_ASC_NODE":298.1153,"ARG_OF_PERICENTER":114.9722,"MEAN_ANOMALY":245.1261,"EPHEMERIS_TYPE":0,"NORAD_CAT_ID":65155,"ELEMENT_SET_NO":999,"REV_AT_EPOCH":5240,"BSTAR":0.0002651974,"MEAN_MOTION_DOT":0.00001802,"MEAN_MOTION_DDOT":0},{"OBJECT_NAME":"KUIPER-00120","OBJECT_ID":"2025-217A","EPOCH":"2026-07-20T05:36:20.602656","CLASSIFICATION_TYPE":"U","MEAN_MOTION":14.79940478,"ECCENTRICITY":0.00005286,"INCLINATION":51.8985,"RA_OF_ASC_NODE":186.9454,"ARG_OF_PERICENTER":61.9106,"MEAN_ANOMALY":298.191,"EPHEMERIS_TYPE":0,"NORAD_CAT_ID":65762,"ELEMENT_SET_NO":999,"REV_AT_EPOCH":4436,"BSTAR":0.00018482252,"MEAN_MOTION_DOT":0.00001188,"MEAN_MOTION_DDOT":0},{"OBJECT_NAME":"KUIPER-00132","OBJECT_ID":"2025-217B","EPOCH":"2026-07-19T22:00:31.154400","CLASSIFICATION_TYPE":"U","MEAN_MOTION":15.43414014,"ECCENTRICITY":0.00071987,"INCLINATION":51.855,"RA_OF_ASC_NODE":79.6444,"ARG_OF_PERICENTER":82.2034,"MEAN_ANOMALY":277.9772,"EPHEMERIS_TYPE":0,"NORAD_CAT_ID":65763,"ELEMENT_SET_NO":999,"REV_AT_EPOCH":4582,"BSTAR":0.00037400143,"MEAN_MOTION_DOT":0.00016621,"MEAN_MOTION_DDOT":0},{"OBJECT_NAME":"KUIPER-00133","OBJECT_ID":"2025-217C","EPOCH":"2026-07-20T03:10:29.957088","CLASSIFICATION_TYPE":"U","MEAN_MOTION":14.79940202,"ECCENTRICITY":0.00005041,"INCLINATION":51.9036,"RA_OF_ASC_NODE":187.5056,"ARG_OF_PERICENTER":53.5063,"MEAN_ANOMALY":306.5946,"EPHEMERIS_TYPE":0,"NORAD_CAT_ID":65764,"ELEMENT_SET_NO":999,"REV_AT_EPOCH":4435,"BSTAR":0.00018533118,"MEAN_MOTION_DOT":0.00001192,"MEAN_MOTION_DDOT":0},{"OBJECT_NAME":"KUIPER-00139","OBJECT_ID":"2025-217D","EPOCH":"2026-07-20T05:38:13.058304","CLASSIFICATION_TYPE":"U","MEAN_MOTION":14.79931189,"ECCENTRICITY":0.00007417,"INCLINATION":51.8985,"RA_OF_ASC_NODE":154.5075,"ARG_OF_PERICENTER":74.4383,"MEAN_ANOMALY":285.6661,"EPHEMERIS_TYPE":0,"NORAD_CAT_ID":65765,"ELEMENT_SET_NO":999,"REV_AT_EPOCH":4482,"BSTAR":0.00023397017,"MEAN_MOTION_DOT":0.00001563,"MEAN_MOTION_DDOT":0},{"OBJECT_NAME":"KUIPER-00142","OBJECT_ID":"2025-217E","EPOCH":"2026-07-20T02:49:01.800480","CLASSIFICATION_TYPE":"U","MEAN_MOTION":14.79925676,"ECCENTRICITY":0.00006538,"INCLINATION":51.8989,"RA_OF_ASC_NODE":169.9876,"ARG_OF_PERICENTER":73.5993,"MEAN_ANOMALY":286.5042,"EPHEMERIS_TYPE":0,"NORAD_CAT_ID":65766,"ELEMENT_SET_NO":999,"REV_AT_EPOCH":4459,"BSTAR":0.00022771836,"MEAN_MOTION_DOT":0.00001515,"MEAN_MOTION_DDOT":0},{"OBJECT_NAME":"KUIPER-00145","OBJECT_ID":"2025-217F","EPOCH":"2026-07-20T02:45:15.577632","CLASSIFICATION_TYPE":"U","MEAN_MOTION":14.7994502,"ECCENTRICITY":0.00014735,"INCLINATION":51.8991,"RA_OF_ASC_NODE":172.5254,"ARG_OF_PERICENTER":37.4085,"MEAN_ANOMALY":322.698,"EPHEMERIS_TYPE":0,"NORAD_CAT_ID":65767,"ELEMENT_SET_NO":999,"REV_AT_EPOCH":4455,"BSTAR":0.0004848232,"MEAN_MOTION_DOT":0.00003478,"MEAN_MOTION_DDOT":0},{"OBJECT_NAME":"KUIPER-00147","OBJECT_ID":"2025-217G","EPOCH":"2026-07-20T05:07:07.525056","CLASSIFICATION_TYPE":"U","MEAN_MOTION":14.79927826,"ECCENTRICITY":0.00005703,"INCLINATION":51.8981,"RA_OF_ASC_NODE":174.5657,"ARG_OF_PERICENTER":83.8044,"MEAN_ANOMALY":276.2983,"EPHEMERIS_TYPE":0,"NORAD_CAT_ID":65768,"ELEMENT_SET_NO":999,"REV_AT_EPOCH":4453,"BSTAR":0.00020474991,"MEAN_MOTION_DOT":0.0000134,"MEAN_MOTION_DDOT":0},{"OBJECT_NAME":"KUIPER-00148","OBJECT_ID":"2025-217H","EPOCH":"2026-07-20T03:57:00.045504","CLASSIFICATION_TYPE":"U","MEAN_MOTION":14.79925201,"ECCENTRICITY":0.00006329,"INCLINATION":51.9038,"RA_OF_ASC_NODE":157.2958,"ARG_OF_PERICENTER":56.8179,"MEAN_ANOMALY":303.2844,"EPHEMERIS_TYPE":0,"NORAD_CAT_ID":65769,"ELEMENT_SET_NO":999,"REV_AT_EPOCH":4477,"BSTAR":-0.00024719601,"MEAN_MOTION_DOT":-0.00002105,"MEAN_MOTION_DDOT":0},{"OBJECT_NAME":"KUIPER-00150","OBJECT_ID":"2025-217J","EPOCH":"2026-07-20T03:14:18.250944","CLASSIFICATION_TYPE":"U","MEAN_MOTION":14.79945586,"ECCENTRICITY":0.00005849,"INCLINATION":51.9011,"RA_OF_ASC_NODE":184.9467,"ARG_OF_PERICENTER":46.8563,"MEAN_ANOMALY":313.2448,"EPHEMERIS_TYPE":0,"NORAD_CAT_ID":65770,"ELEMENT_SET_NO":999,"REV_AT_EPOCH":4438,"BSTAR":0.00022251779,"MEAN_MOTION_DOT":0.00001476,"MEAN_MOTION_DDOT":0},{"OBJECT_NAME":"KUIPER-00151","OBJECT_ID":"2025-217K","EPOCH":"2026-07-19T04:44:35.809152","CLASSIFICATION_TYPE":"U","MEAN_MOTION":14.79921639,"ECCENTRICITY":0.00004437,"INCLINATION":51.9011,"RA_OF_ASC_NODE":181.5893,"ARG_OF_PERICENTER":77.3948,"MEAN_ANOMALY":282.7064,"EPHEMERIS_TYPE":0,"NORAD_CAT_ID":65771,"ELEMENT_SET_NO":999,"REV_AT_EPOCH":4435,"BSTAR":0.0001856648,"MEAN_MOTION_DOT":0.00001194,"MEAN_MOTION_DDOT":0},{"OBJECT_NAME":"KUIPER-00152","OBJECT_ID":"2025-217L","EPOCH":"2026-07-20T02:56:50.448768","CLASSIFICATION_TYPE":"U","MEAN_MOTION":14.79941171,"ECCENTRICITY":0.00007008,"INCLINATION":51.9004,"RA_OF_ASC_NODE":164.9826,"ARG_OF_PERICENTER":67.802,"MEAN_ANOMALY":292.3017,"EPHEMERIS_TYPE":0,"NORAD_CAT_ID":65772,"ELEMENT_SET_NO":999,"REV_AT_EPOCH":4466,"BSTAR":0.00022413779,"MEAN_MOTION_DOT":0.00001488,"MEAN_MOTION_DDOT":0}]}
