KUIPER-00114            
1 65151U 25171V   26201.28713539  .00001654  00000+0  24587-3 0  9997
2 65151  51.9013 309.2499 0000375 122.4043 237.6956 14.79943570 52279
KUIPER-00115            
1 65152U 25171W   26200.68747082  .00001330  00000+0  20344-3 0  9999
2 65152  51.9020 304.4038 0000412 118.7827 241.3177 14.79934372 52293
KUIPER-00116            
1 65153U 25171X   26201.32361254  .00001748  00000+0  25824-3 0  9996
2 65153  51.9014 306.6248 0000604  99.3751 260.7279 14.79923968 52317
KUIPER-00118            
1 65154U 25171Y   26200.71312251  .00001468  00000+0  22151-3 0  9991
2 65154  51.9009 311.7748 0000388 103.0739 257.0267 14.79939968 52191
KUIPER-00119            
1 65155U 25171Z   26200.99674067  .00001802  00000+0  26520-3 0  9994
2 65155  51.9045 298.1153 0000194 114.9722 245.1261 14.79942392 52409
KUIPER-00120            
1 65762U 25217A   26201.23357179  .00001188  00000+0  18482-3 0  9994
2 65762  51.8985 186.9454 0000528  61.9106 298.1910 14.79940478 44369
KUIPER-00132            
1 65763U 25217B   26200.91702725  .00016621  00000+0  37400-3 0  9999
2 65763  51.8550  79.6444 0007198  82.2034 277.9772 15.43414014 45828
KUIPER-00133            
1 65764U 25217C   26201.13229117  .00001192  00000+0  18533-3 0  9997
2 65764  51.9036 187.5056 0000504  53.5063 306.5946 14.79940202 44354
KUIPER-00139            
1 65765U 25217D   26201.23487336  .00001563  00000+0  23397-3 0  9994
2 65765  51.8985 154.5075 0000741  74.4383 285.6661 14.79931189 44829
KUIPER-00142            
1 65766U 25217E   26201.11738195  .00001515  00000+0  22772-3 0  9997
2 65766  51.8989 169.9876 0000653  73.5993 286.5042 14.79925676 44593
KUIPER-00145            
1 65767U 25217F   26201.11476363  .00003478  00000+0  48482-3 0  9990
2 65767  51.8991 172.5254 0001473  37.4085 322.6980 14.79945020 44553
KUIPER-00147            
1 65768U 25217G   26201.21328154  .00001340  00000+0  20475-3 0  9994
2 65768  51.8981 174.5657 0000570  83.8044 276.2983 14.79927826 44538
KUIPER-00148            
1 65769U 25217H   26201.16458386 -.00002105  00000+0 -24720-3 0  9999
2 65769  51.9038 157.2958 0000632  56.8179 303.2844 14.79925201 44771
KUIPER-00150            
1 65770U 25217J   26201.13493346  .00001476  00000+0  22252-3 0  9999
2 65770  51.9011 184.9467 0000584  46.8563 313.2448 14.79945586 44384
KUIPER-00151            
1 65771U 25217K   26200.19763668  .00001194  00000+0  18566-3 0  9992
2 65771  51.9011 181.5893 0000443  77.3948 282.7064 14.79921639 44355
KUIPER-00152            
1 65772U 25217L   26201.12280612  .00001488  00000+0  22414-3 0  9993
2 65772  51.9004 164.9826 0000700  67.8020 292.3017 14.79941171 44662
